OBJECT_NAME,OBJECT_ID,EPOCH,MEAN_MOTION,ECCENTRICITY,INCLINATION,RA_OF_ASC_NODE,ARG_OF_PERICENTER,MEAN_ANOMALY,EPHEMERIS_TYPE,CLASSIFICATION_TYPE,NORAD_CAT_ID,ELEMENT_SET_NO,REV_AT_EPOCH,BSTAR,MEAN_MOTION_DOT,MEAN_MOTION_DDOT
STARLINK-5313,2023-010AW,2026-06-11T07:14:37.269600,14.98329109,.00034489,69.9991,128.4590,265.6495,94.4270,0,U,55313,999,18866,.2513367E-5,-.63E-6,0
STARLINK-5305,2023-010AX,2026-06-11T07:20:37.802976,14.98331110,.00032744,69.9990,128.4712,269.0370,91.0414,0,U,55314,999,18866,.11846533E-4,.48E-6,0
STARLINK-4623,2023-010AY,2026-06-11T09:15:07.009920,14.98331605,.00040008,69.9988,148.2239,263.6083,96.4620,0,U,55315,999,18729,.37196705E-4,.351E-5,0
STARLINK-5257,2023-010AZ,2026-06-11T14:39:13.634208,14.98329942,.00036747,69.9990,127.5458,265.6273,94.4467,0,U,55316,999,18871,-.5482215E-5,-.159E-5,0
STARLINK-5265,2023-010BA,2026-06-11T05:32:28.767264,14.98328899,.00032317,69.9992,128.6401,267.4866,92.5923,0,U,55317,999,18865,-.4346938E-5,-.145E-5,0
STARLINK-5180,2023-010BB,2026-06-11T15:03:16.248096,14.98330498,.0003198,69.9991,127.5879,269.6593,90.4200,0,U,55318,999,18871,.14451653E-4,.79E-6,0
STARLINK-5196,2023-010BC,2026-06-11T05:20:27.176928,14.98329992,.00034539,69.9990,128.5838,267.8701,92.2063,0,U,55319,999,18865,.15742159E-4,.95E-6,0
HAWK-6B,2023-011A,2026-06-10T22:52:40.676448,15.22872392,.00035018,40.4991,28.4311,327.0265,33.0326,0,U,55324,999,18689,.17994917E-3,.4111E-4,0
HAWK-6C,2023-011C,2026-06-09T09:05:18.780576,15.22867772,.00043141,40.4982,34.4522,308.3612,51.6810,0,U,55326,999,18666,.18394517E-3,.4206E-4,0
HAWK-6A,2023-011D,2026-06-11T08:18:23.285376,15.22877524,.00037682,40.4992,24.6026,316.5498,43.5014,0,U,55327,999,18696,.17656232E-3,.4031E-4,0
STARLINK-5492,2023-013A,2026-06-11T04:48:02.885760,15.27573208,.00016545,43.0048,135.3989,270.9010,89.1652,0,U,55331,999,18705,-.6772641E-5,-.449E-5,0
STARLINK-5491,2023-013B,2026-06-11T03:40:30.974592,15.27577595,.00016917,43.0034,121.1746,258.1960,101.8702,0,U,55332,999,18613,.19146663E-4,.265E-5,0
STARLINK-5493,2023-013C,2026-06-10T05:26:48.041088,15.27579902,.0001283,43.0027,140.9939,264.7598,95.3108,0,U,55333,999,18582,.38791E-4,.805E-5,0
STARLINK-5652,2023-013D,2026-06-10T05:21:13.551264,15.27576936,.0001434,43.0023,140.8649,265.7638,94.3050,0,U,55334,999,18582,.34031E-4,.674E-5,0
STARLINK-5660,2023-013E,2026-06-11T14:29:38.266368,15.27577936,.00012186,43.0046,133.2659,271.0228,89.0484,0,U,55335,999,18603,.26139211E-4,.457E-5,0
STARLINK-5655,2023-013F,2026-06-10T14:41:20.675040,15.27574617,.00012298,43.0046,123.9136,272.4894,87.5817,0,U,55336,999,18605,.35459895E-4,.714E-5,0
STARLINK-5667,2023-013G,2026-06-11T03:57:09.709344,15.27577620,.00014028,43.0067,121.2283,266.2739,93.7952,0,U,55337,999,18613,.15703226E-4,.17E-5,0
STARLINK-5658,2023-013H,2026-06-11T14:35:11.330592,15.27577407,.00010831,43.0028,133.2936,267.1735,92.8992,0,U,55338,999,18603,-.7296123E-5,-.463E-5,0
STARLINK-5671,2023-013J,2026-06-11T05:02:08.650176,15.27574641,.00014548,43.0038,138.8775,270.6336,89.4349,0,U,55339,999,18593,.2885858E-5,-.183E-5,0
STARLINK-5675,2023-013K,2026-06-10T15:39:38.215296,15.27577495,.00016282,43.0032,138.1713,275.4188,84.6478,0,U,55340,999,18589,.1718468E-4,.211E-5,0
STARLINK-5670,2023-013L,2026-06-11T14:38:53.642976,15.27574417,.00010733,43.0022,133.3126,264.8312,95.2418,0,U,55341,999,18603,.7175481E-5,-.65E-6,0
STARLINK-5657,2023-013M,2026-06-11T14:44:26.398752,15.27569335,.0001246,43.0006,133.3389,278.4661,81.6049,0,U,55342,999,18603,.77261026E-4,.1864E-4,0
STARLINK-5661,2023-013N,2026-06-11T05:32:16.661760,15.27567606,.0001989,43.0051,134.7758,276.8828,83.1798,0,U,55343,999,18598,-.10395415E-3,-.3121E-4,0
STARLINK-5653,2023-013Q,2026-06-11T03:46:03.986112,15.27575576,.00012663,42.9945,121.1891,247.4744,112.5974,0,U,55345,999,18613,.22819951E-4,.366E-5,0
STARLINK-5631,2023-013R,2026-06-11T05:37:47.528832,15.27576075,.00014264,43.0033,134.7903,282.0887,77.9805,0,U,55346,999,18598,-.32516525E-4,-.1157E-4,0
STARLINK-5663,2023-013S,2026-06-11T15:00:53.205984,15.27572510,.00010672,43.0029,132.5691,264.5637,95.5093,0,U,55347,999,18604,-.9308987E-5,-.518E-5,0
STARLINK-5609,2023-013T,2026-06-10T15:45:11.227680,15.27577552,.00009878,43.0008,138.1919,286.4228,73.6515,0,U,55348,999,18589,.20157764E-4,.293E-5,0
STARLINK-5666,2023-013U,2026-06-10T15:50:44.371392,15.27578235,.00015379,43.0061,138.2286,301.5225,58.5476,0,U,55349,999,18589,.3769631E-5,-.159E-5,0
STARLINK-5668,2023-013V,2026-06-11T05:30:24.774624,15.27575569,.0001318,42.9985,134.7512,274.1525,85.9176,0,U,55350,999,18598,-.15245601E-4,-.681E-5,0
STARLINK-5659,2023-013W,2026-06-10T15:43:20.670240,15.27571570,.00017348,43.0047,138.1779,278.3100,81.7555,0,U,55351,999,18589,-.625071E-5,-.434E-5,0
