STARLINK-5313           
1 55313U 23010AW  26162.30182025 -.00000063  00000+0  25134-5 0  9990
2 55313  69.9991 128.4590 0003448 265.6495  94.4270 14.98329109188668
STARLINK-5305           
1 55314U 23010AX  26162.30599309  .00000048  00000+0  11847-4 0  9995
2 55314  69.9990 128.4712 0003274 269.0370  91.0414 14.98331110188669
STARLINK-4623           
1 55315U 23010AY  26162.38549780  .00000351  00000+0  37197-4 0  9995
2 55315  69.9988 148.2239 0004000 263.6083  96.4620 14.98331605187295
STARLINK-5257           
1 55316U 23010AZ  26162.61057447 -.00000159  00000+0 -54822-5 0  9999
2 55316  69.9990 127.5458 0003674 265.6273  94.4467 14.98329942188717
STARLINK-5265           
1 55317U 23010BA  26162.23088851 -.00000145  00000+0 -43469-5 0  9991
2 55317  69.9992 128.6401 0003231 267.4866  92.5923 14.98328899188656
STARLINK-5180           
1 55318U 23010BB  26162.62727139  .00000079  00000+0  14452-4 0  9997
2 55318  69.9991 127.5879 0003198 269.6593  90.4200 14.98330498188716
STARLINK-5196           
1 55319U 23010BC  26162.22253677  .00000095  00000+0  15742-4 0  9996
2 55319  69.9990 128.5838 0003453 267.8701  92.2063 14.98329992188654
HAWK-6B                 
1 55324U 23011A   26161.95324857  .00004111  00000+0  17995-3 0  9995
2 55324  40.4991  28.4311 0003501 327.0265  33.0326 15.22872392186891
HAWK-6C                 
1 55326U 23011C   26160.37868959  .00004206  00000+0  18395-3 0  9998
2 55326  40.4982  34.4522 0004314 308.3612  51.6810 15.22867772186660
HAWK-6A                 
1 55327U 23011D   26162.34610284  .00004031  00000+0  17656-3 0  9999
2 55327  40.4992  24.6026 0003768 316.5498  43.5014 15.22877524186962
STARLINK-5492           
1 55331U 23013A   26162.20003340 -.00000449  00000+0 -67726-5 0  9996
2 55331  43.0048 135.3989 0001654 270.9010  89.1652 15.27573208187053
STARLINK-5491           
1 55332U 23013B   26162.15313628  .00000265  00000+0  19147-4 0  9991
2 55332  43.0034 121.1746 0001691 258.1960 101.8702 15.27577595186135
STARLINK-5493           
1 55333U 23013C   26161.22694492  .00000805  00000+0  38791-4 0  9996
2 55333  43.0027 140.9939 0001283 264.7598  95.3108 15.27579902185824
STARLINK-5652           
1 55334U 23013D   26161.22307351  .00000674  00000+0  34031-4 0  9999
2 55334  43.0023 140.8649 0001434 265.7638  94.3050 15.27576936185821
STARLINK-5660           
1 55335U 23013E   26162.60391512  .00000457  00000+0  26139-4 0  9994
2 55335  43.0046 133.2659 0001218 271.0228  89.0484 15.27577936186036
STARLINK-5655           
1 55336U 23013F   26161.61204485  .00000714  00000+0  35460-4 0  9990
2 55336  43.0046 123.9136 0001229 272.4894  87.5817 15.27574617186057
STARLINK-5667           
1 55337U 23013G   26162.16469571  .00000170  00000+0  15703-4 0  9995
2 55337  43.0067 121.2283 0001402 266.2739  93.7952 15.27577620186132
STARLINK-5658           
1 55338U 23013H   26162.60777003 -.00000463  00000+0 -72961-5 0  9994
2 55338  43.0028 133.2936 0001083 267.1735  92.8992 15.27577407186035
STARLINK-5671           
1 55339U 23013J   26162.20982234 -.00000183  00000+0  28859-5 0  9990
2 55339  43.0038 138.8775 0001454 270.6336  89.4349 15.27574641185930
STARLINK-5675           
1 55340U 23013K   26161.65252564  .00000211  00000+0  17185-4 0  9996
2 55340  43.0032 138.1713 0001628 275.4188  84.6478 15.27577495185897
STARLINK-5670           
1 55341U 23013L   26162.61034309 -.00000065  00000+0  71755-5 0  9991
2 55341  43.0022 133.3126 0001073 264.8312  95.2418 15.27574417186037
STARLINK-5657           
1 55342U 23013M   26162.61419443  .00001864  00000+0  77261-4 0  9992
2 55342  43.0006 133.3389 0001246 278.4661  81.6049 15.27569335186033
STARLINK-5661           
1 55343U 23013N   26162.23074840 -.00003121  00000+0 -10395-3 0  9993
2 55343  43.0051 134.7758 0001989 276.8828  83.1798 15.27567606185980
STARLINK-5653           
1 55345U 23013Q   26162.15699058  .00000366  00000+0  22820-4 0  9993
2 55345  42.9945 121.1891 0001266 247.4744 112.5974 15.27575576186135
STARLINK-5631           
1 55346U 23013R   26162.23457788 -.00001157  00000+0 -32517-4 0  9990
2 55346  43.0033 134.7903 0001426 282.0887  77.9805 15.27576075185985
STARLINK-5663           
1 55347U 23013S   26162.62561581 -.00000518  00000+0 -93090-5 0  9995
2 55347  43.0029 132.5691 0001067 264.5637  95.5093 15.27572510186043
STARLINK-5609           
1 55348U 23013T   26161.65637995  .00000293  00000+0  20158-4 0  9993
2 55348  43.0008 138.1919 0000987 286.4228  73.6515 15.27577552185894
STARLINK-5666           
1 55349U 23013U   26161.66023578 -.00000159  00000+0  37696-5 0  9999
2 55349  43.0061 138.2286 0001537 301.5225  58.5476 15.27578235185897
STARLINK-5668           
1 55350U 23013V   26162.22945341 -.00000681  00000+0 -15246-4 0  9992
2 55350  42.9985 134.7512 0001318 274.1525  85.9176 15.27575569185988
STARLINK-5659           
1 55351U 23013W   26161.65510035 -.00000434  00000+0 -62507-5 0  9996
2 55351  43.0047 138.1779 0001734 278.3100  81.7555 15.27571570185893
